[{"OBJECT_NAME":"STARLINK-33997","OBJECT_ID":"2025-098C","EPOCH":"2026-03-09T22:20:46.078368","MEAN_MOTION":14.96551413,"ECCENTRICITY":0.00068477,"INCLINATION":70.0004,"RA_OF_ASC_NODE":274.0384,"ARG_OF_PERICENTER":77.5305,"MEAN_ANOMALY":282.6619,"EPHEMERIS_TYPE":0,"CLASSIFICATION_TYPE":"U","NORAD_CAT_ID":63928,"ELEMENT_SET_NO":999,"REV_AT_EPOCH":4660,"BSTAR":-0.062237161,"MEAN_MOTION_DOT":-0.00663337,"MEAN_MOTION_DDOT":0},{"OBJECT_NAME":"PSLV DEB","OBJECT_ID":"2001-049BU","EPOCH":"2026-03-09T17:49:30.118080","MEAN_MOTION":14.92717498,"ECCENTRICITY":0.00287316,"INCLINATION":98.0611,"RA_OF_ASC_NODE":133.044,"ARG_OF_PERICENTER":17.6514,"MEAN_ANOMALY":97.6538,"EPHEMERIS_TYPE":0,"CLASSIFICATION_TYPE":"U","NORAD_CAT_ID":27124,"ELEMENT_SET_NO":999,"REV_AT_EPOCH":30489,"BSTAR":0.00040608061,"MEAN_MOTION_DOT":4.163e-5,"MEAN_MOTION_DDOT":0}]
